STARLINK-11613 [DTC]    
1 63136U 25043E   26007.11091183  .00163568  00000+0  12512-2 0  9993
2 63136  42.9995 262.2288 0001475 276.6093  83.4607 15.70879760 49785
STARLINK-11616 [DTC]    
1 63137U 25043F   26007.06403696  .00192561  00000+0  14660-2 0  9995
2 63137  43.0021 261.8505 0002806 266.1200  93.9347 15.70898295 49789
STARLINK-11611 [DTC]    
1 63138U 25043G   26007.07905553  .00292790  00000+0  21978-2 0  9991
2 63138  42.9987 261.9724 0002123 275.3800  84.6825 15.70926532 49787
STARLINK-11628 [DTC]    
1 63139U 25043H   26007.84736118  .00206310  00000+0  15702-2 0  9997
2 63139  42.9988 257.4122 0001764 209.9176 150.1591 15.70863006 49909
STARLINK-11607 [DTC]    
1 63140U 25043J   26007.38635759  .00206004  00000+0  15662-2 0  9992
2 63140  42.9993 259.9669 0000496 332.5149  27.5692 15.70889765 49835
STARLINK-11522 [DTC]    
1 63141U 25043K   26007.39166434  .00224454  00000+0  17014-2 0  9995
2 63141  42.9992 260.0101 0000644 284.4701  75.6096 15.70902490 49656
STARLINK-11503 [DTC]    
1 63142U 25043L   26007.05781988  .00321589  00000+0  24052-2 0  9993
2 63142  42.9992 261.7970 0001668 283.3073  76.7609 15.70927125 49605
STARLINK-11579 [DTC]    
1 63143U 25043M   26007.06312506  .00183442  00000+0  13985-2 0  9998
2 63143  43.0017 261.8394 0002620 261.1473  98.9098 15.70894516 49665
STARLINK-11581 [DTC]    
1 63144U 25043N   26007.40759701  .00215005  00000+0  16327-2 0  9993
2 63144  42.9990 260.1368 0000939  35.0665 325.0264 15.70890121 49835
STARLINK-32949          
1 63145U 25043P   26007.38669656  .00019326  00000+0  71024-3 0  9994
2 63145  43.0016   2.7115 0001214 266.8069  93.2644 15.27567351 48558
STARLINK-32952          
1 63146U 25043Q   26007.42284754  .00034166  00000+0  12445-2 0  9992
2 63146  43.0011   9.0360 0001372 273.2084  86.8611 15.27602377 48549
STARLINK-32936          
1 63147U 25043R   26007.36003171  .00018919  00000+0  69587-3 0  9996
2 63147  42.9991   9.4446 0001567 271.0778  88.9894 15.27551248 47901
STARLINK-32937          
1 63148U 25043S   26007.68794601  .00030767  00000+0  11222-2 0  9994
2 63148  43.0007   0.6751 0001175 277.5498  82.5220 15.27600109 48038
STARLINK-32939          
1 63149U 25043T   26007.35072272  .00027002  00000+0  98816-3 0  9995
2 63149  43.0028   2.4444 0001724 267.2803  92.7851 15.27547298 47982
STARLINK-32919          
1 63150U 25043U   26007.69178860  .00021046  00000+0  77236-3 0  9999
2 63150  43.0009   0.7040 0001153 282.0255  78.0468 15.27570609 48038
STARLINK-32876          
1 63151U 25043V   26007.65837866  .00024841  00000+0  90950-3 0  9998
2 63151  43.0003   0.4484 0001667 280.1895  79.8769 15.27568243 48035
