[{"OBJECT_NAME":"STARLINK-11613 [DTC]","OBJECT_ID":"2025-043E","EPOCH":"2026-01-07T02:39:42.782112","MEAN_MOTION":15.7087976,"ECCENTRICITY":0.0001475,"INCLINATION":42.9995,"RA_OF_ASC_NODE":262.2288,"ARG_OF_PERICENTER":276.6093,"MEAN_ANOMALY":83.4607,"EPHEMERIS_TYPE":0,"CLASSIFICATION_TYPE":"U","NORAD_CAT_ID":63136,"ELEMENT_SET_NO":999,"REV_AT_EPOCH":4978,"BSTAR":0.0012512052,"MEAN_MOTION_DOT":0.00163568,"MEAN_MOTION_DDOT":0},{"OBJECT_NAME":"STARLINK-11616 [DTC]","OBJECT_ID":"2025-043F","EPOCH":"2026-01-07T01:32:12.793344","MEAN_MOTION":15.70898295,"ECCENTRICITY":0.00028068,"INCLINATION":43.0021,"RA_OF_ASC_NODE":261.8505,"ARG_OF_PERICENTER":266.12,"MEAN_ANOMALY":93.9347,"EPHEMERIS_TYPE":0,"CLASSIFICATION_TYPE":"U","NORAD_CAT_ID":63137,"ELEMENT_SET_NO":999,"REV_AT_EPOCH":4978,"BSTAR":0.0014659603,"MEAN_MOTION_DOT":0.00192561,"MEAN_MOTION_DDOT":0},{"OBJECT_NAME":"STARLINK-11611 [DTC]","OBJECT_ID":"2025-043G","EPOCH":"2026-01-07T01:53:50.397792","MEAN_MOTION":15.70926532,"ECCENTRICITY":0.00021234,"INCLINATION":42.9987,"RA_OF_ASC_NODE":261.9724,"ARG_OF_PERICENTER":275.38,"MEAN_ANOMALY":84.6825,"EPHEMERIS_TYPE":0,"CLASSIFICATION_TYPE":"U","NORAD_CAT_ID":63138,"ELEMENT_SET_NO":999,"REV_AT_EPOCH":4978,"BSTAR":0.0021978375,"MEAN_MOTION_DOT":0.0029279,"MEAN_MOTION_DDOT":0},{"OBJECT_NAME":"STARLINK-11628 [DTC]","OBJECT_ID":"2025-043H","EPOCH":"2026-01-07T20:20:12.005952","MEAN_MOTION":15.70863006,"ECCENTRICITY":0.0001764,"INCLINATION":42.9988,"RA_OF_ASC_NODE":257.4122,"ARG_OF_PERICENTER":209.9176,"MEAN_ANOMALY":150.1591,"EPHEMERIS_TYPE":0,"CLASSIFICATION_TYPE":"U","NORAD_CAT_ID":63139,"ELEMENT_SET_NO":999,"REV_AT_EPOCH":4990,"BSTAR":0.0015702,"MEAN_MOTION_DOT":0.0020631,"MEAN_MOTION_DDOT":0},{"OBJECT_NAME":"STARLINK-11607 [DTC]","OBJECT_ID":"2025-043J","EPOCH":"2026-01-07T09:16:21.295776","MEAN_MOTION":15.70889765,"ECCENTRICITY":4.96e-5,"INCLINATION":42.9993,"RA_OF_ASC_NODE":259.9669,"ARG_OF_PERICENTER":332.5149,"MEAN_ANOMALY":27.5692,"EPHEMERIS_TYPE":0,"CLASSIFICATION_TYPE":"U","NORAD_CAT_ID":63140,"ELEMENT_SET_NO":999,"REV_AT_EPOCH":4983,"BSTAR":0.0015662,"MEAN_MOTION_DOT":0.00206004,"MEAN_MOTION_DDOT":0},{"OBJECT_NAME":"STARLINK-11522 [DTC]","OBJECT_ID":"2025-043K","EPOCH":"2026-01-07T09:23:59.798976","MEAN_MOTION":15.7090249,"ECCENTRICITY":6.44e-5,"INCLINATION":42.9992,"RA_OF_ASC_NODE":260.0101,"ARG_OF_PERICENTER":284.4701,"MEAN_ANOMALY":75.6096,"EPHEMERIS_TYPE":0,"CLASSIFICATION_TYPE":"U","NORAD_CAT_ID":63141,"ELEMENT_SET_NO":999,"REV_AT_EPOCH":4965,"BSTAR":0.0017014,"MEAN_MOTION_DOT":0.00224454,"MEAN_MOTION_DDOT":0},{"OBJECT_NAME":"STARLINK-11503 [DTC]","OBJECT_ID":"2025-043L","EPOCH":"2026-01-07T01:23:15.637632","MEAN_MOTION":15.70927125,"ECCENTRICITY":0.0001668,"INCLINATION":42.9992,"RA_OF_ASC_NODE":261.797,"ARG_OF_PERICENTER":283.3073,"MEAN_ANOMALY":76.7609,"EPHEMERIS_TYPE":0,"CLASSIFICATION_TYPE":"U","NORAD_CAT_ID":63142,"ELEMENT_SET_NO":999,"REV_AT_EPOCH":4960,"BSTAR":0.0024051911,"MEAN_MOTION_DOT":0.00321589,"MEAN_MOTION_DDOT":0},{"OBJECT_NAME":"STARLINK-11579 [DTC]","OBJECT_ID":"2025-043M","EPOCH":"2026-01-07T01:30:54.005184","MEAN_MOTION":15.70894516,"ECCENTRICITY":0.00026208,"INCLINATION":43.0017,"RA_OF_ASC_NODE":261.8394,"ARG_OF_PERICENTER":261.1473,"MEAN_ANOMALY":98.9098,"EPHEMERIS_TYPE":0,"CLASSIFICATION_TYPE":"U","NORAD_CAT_ID":63143,"ELEMENT_SET_NO":999,"REV_AT_EPOCH":4966,"BSTAR":0.0013984849,"MEAN_MOTION_DOT":0.00183442,"MEAN_MOTION_DDOT":0},{"OBJECT_NAME":"STARLINK-11581 [DTC]","OBJECT_ID":"2025-043N","EPOCH":"2026-01-07T09:46:56.381664","MEAN_MOTION":15.70890121,"ECCENTRICITY":9.39e-5,"INCLINATION":42.999,"RA_OF_ASC_NODE":260.1368,"ARG_OF_PERICENTER":35.0665,"MEAN_ANOMALY":325.0264,"EPHEMERIS_TYPE":0,"CLASSIFICATION_TYPE":"U","NORAD_CAT_ID":63144,"ELEMENT_SET_NO":999,"REV_AT_EPOCH":4983,"BSTAR":0.0016327,"MEAN_MOTION_DOT":0.00215005,"MEAN_MOTION_DDOT":0},{"OBJECT_NAME":"STARLINK-32949","OBJECT_ID":"2025-043P","EPOCH":"2026-01-07T09:16:50.582784","MEAN_MOTION":15.27567351,"ECCENTRICITY":0.0001214,"INCLINATION":43.0016,"RA_OF_ASC_NODE":2.7115,"ARG_OF_PERICENTER":266.8069,"MEAN_ANOMALY":93.2644,"EPHEMERIS_TYPE":0,"CLASSIFICATION_TYPE":"U","NORAD_CAT_ID":63145,"ELEMENT_SET_NO":999,"REV_AT_EPOCH":4855,"BSTAR":0.00071024,"MEAN_MOTION_DOT":0.00019326,"MEAN_MOTION_DDOT":0},{"OBJECT_NAME":"STARLINK-32952","OBJECT_ID":"2025-043Q","EPOCH":"2026-01-07T10:08:54.027456","MEAN_MOTION":15.27602377,"ECCENTRICITY":0.0001372,"INCLINATION":43.0011,"RA_OF_ASC_NODE":9.036,"ARG_OF_PERICENTER":273.2084,"MEAN_ANOMALY":86.8611,"EPHEMERIS_TYPE":0,"CLASSIFICATION_TYPE":"U","NORAD_CAT_ID":63146,"ELEMENT_SET_NO":999,"REV_AT_EPOCH":4854,"BSTAR":0.0012445,"MEAN_MOTION_DOT":0.00034166,"MEAN_MOTION_DDOT":0},{"OBJECT_NAME":"STARLINK-32936","OBJECT_ID":"2025-043R","EPOCH":"2026-01-07T08:38:26.739744","MEAN_MOTION":15.27551248,"ECCENTRICITY":0.0001567,"INCLINATION":42.9991,"RA_OF_ASC_NODE":9.4446,"ARG_OF_PERICENTER":271.0778,"MEAN_ANOMALY":88.9894,"EPHEMERIS_TYPE":0,"CLASSIFICATION_TYPE":"U","NORAD_CAT_ID":63147,"ELEMENT_SET_NO":999,"REV_AT_EPOCH":4790,"BSTAR":0.00069587,"MEAN_MOTION_DOT":0.00018919,"MEAN_MOTION_DDOT":0},{"OBJECT_NAME":"STARLINK-32937","OBJECT_ID":"2025-043S","EPOCH":"2026-01-07T16:30:38.535264","MEAN_MOTION":15.27600109,"ECCENTRICITY":0.0001175,"INCLINATION":43.0007,"RA_OF_ASC_NODE":0.6751,"ARG_OF_PERICENTER":277.5498,"MEAN_ANOMALY":82.522,"EPHEMERIS_TYPE":0,"CLASSIFICATION_TYPE":"U","NORAD_CAT_ID":63148,"ELEMENT_SET_NO":999,"REV_AT_EPOCH":4803,"BSTAR":0.0011222,"MEAN_MOTION_DOT":0.00030767,"MEAN_MOTION_DDOT":0},{"OBJECT_NAME":"STARLINK-32939","OBJECT_ID":"2025-043T","EPOCH":"2026-01-07T08:25:02.443008","MEAN_MOTION":15.27547298,"ECCENTRICITY":0.0001724,"INCLINATION":43.0028,"RA_OF_ASC_NODE":2.4444,"ARG_OF_PERICENTER":267.2803,"MEAN_ANOMALY":92.7851,"EPHEMERIS_TYPE":0,"CLASSIFICATION_TYPE":"U","NORAD_CAT_ID":63149,"ELEMENT_SET_NO":999,"REV_AT_EPOCH":4798,"BSTAR":0.00098816,"MEAN_MOTION_DOT":0.00027002,"MEAN_MOTION_DDOT":0},{"OBJECT_NAME":"STARLINK-32919","OBJECT_ID":"2025-043U","EPOCH":"2026-01-07T16:36:10.535040","MEAN_MOTION":15.27570609,"ECCENTRICITY":0.0001153,"INCLINATION":43.0009,"RA_OF_ASC_NODE":0.704,"ARG_OF_PERICENTER":282.0255,"MEAN_ANOMALY":78.0468,"EPHEMERIS_TYPE":0,"CLASSIFICATION_TYPE":"U","NORAD_CAT_ID":63150,"ELEMENT_SET_NO":999,"REV_AT_EPOCH":4803,"BSTAR":0.00077236,"MEAN_MOTION_DOT":0.00021046,"MEAN_MOTION_DDOT":0},{"OBJECT_NAME":"STARLINK-32876","OBJECT_ID":"2025-043V","EPOCH":"2026-01-07T15:48:03.916224","MEAN_MOTION":15.27568243,"ECCENTRICITY":0.0001667,"INCLINATION":43.0003,"RA_OF_ASC_NODE":0.4484,"ARG_OF_PERICENTER":280.1895,"MEAN_ANOMALY":79.8769,"EPHEMERIS_TYPE":0,"CLASSIFICATION_TYPE":"U","NORAD_CAT_ID":63151,"ELEMENT_SET_NO":999,"REV_AT_EPOCH":4803,"BSTAR":0.0009095,"MEAN_MOTION_DOT":0.00024841,"MEAN_MOTION_DDOT":0}]
